NORAD_CAT_ID,OBJECT_NAME,OBJECT_TYPE,EPOCH,MEAN_MOTION,ECCENTRICITY,INCLINATION,RA_OF_ASC_NODE,ARG_OF_PERICENTER,MEAN_ANOMALY,BSTAR,MEAN_MOTION_DOT,MEAN_MOTION_DDOT,TLE_LINE0,TLE_LINE1,TLE_LINE2,SEMIMAJOR_AXIS,PERIOD,APOGEE,PERIGEE,DECAYED
52112.0,STARLINK-3734,PAYLOAD,2023-08-09 08:44:15,15.08846631,9e-05,53.2169,353.8733,96.1125,263.997,0.00084668,0.00013215,0.0,0 STARLINK-3734,1 52112U 22029AA  23221.36407008  .00013215  00000-0  84668-3 0  9991,2 52112  53.2169 353.8733 0000900  96.1125 263.9970 15.08846631 78377,6917.86,95.437,540.348,539.103,0.0
52112.0,STARLINK-3734,PAYLOAD,2023-08-09 15:05:48,15.08838708,0.0001024,53.2162,352.6853,70.9645,289.1458,3.7233e-05,3.05e-06,0.0,0 STARLINK-3734,1 52112U 22029AA  23221.62903119  .00000305  00000-0  37233-4 0  9997,2 52112  53.2162 352.6853 0001024  70.9645 289.1458 15.08838708 78417,6917.884,95.438,540.458,539.041,0.0
52112.0,STARLINK-3734,PAYLOAD,2023-08-10 18:07:21,15.0885459,0.0001054,53.2176,347.6305,67.6646,292.4458,0.00069833,0.00010848,0.0,0 STARLINK-3734,1 52112U 22029AA  23222.75511060  .00010848  00000-0  69833-3 0  9995,2 52112  53.2176 347.6305 0001054  67.6646 292.4458 15.08854590 78587,6917.836,95.437,540.43,538.972,0.0
52112.0,STARLINK-3734,PAYLOAD,2023-08-11 08:25:49,15.08846517,9.63e-05,53.2179,344.9541,75.1128,284.9971,0.00027911,4.158e-05,0.0,0 STARLINK-3734,1 52112U 22029AA  23223.35127123  .00004158  00000-0  27911-3 0  9993,2 52112  53.2179 344.9541 0000963  75.1128 284.9971 15.08846517 78675,6917.86,95.437,540.392,539.059,0.0
52112.0,STARLINK-3734,PAYLOAD,2023-08-12 08:16:36,15.08840569,7e-05,53.2175,340.4934,45.2002,314.9047,0.00014459,2.014e-05,0.0,0 STARLINK-3734,1 52112U 22029AA  23224.34487074  .00002014  00000-0  14459-3 0  9999,2 52112  53.2175 340.4934 0000700  45.2002 314.9047 15.08840569 78822,6917.879,95.438,540.228,539.259,0.0
52112.0,STARLINK-3734,PAYLOAD,2023-08-13 14:28:56,15.08840306,0.000111,53.2183,334.8438,78.604,281.5076,6.7129e-05,7.81e-06,0.0,0 STARLINK-3734,1 52112U 22029AA  23225.60343386  .00000781  00000-0  67129-4 0  9998,2 52112  53.2183 334.8438 0001110  78.6040 281.5076 15.08840306 79017,6917.879,95.438,540.512,538.977,0.0
52112.0,STARLINK-3734,PAYLOAD,2023-08-14 17:30:29,15.08849997,9.66e-05,53.2169,329.7876,74.8576,285.2523,0.00027376,4.073e-05,0.0,0 STARLINK-3734,1 52112U 22029AA  23226.72950942  .00004073  00000-0  27376-3 0  9991,2 52112  53.2169 329.7876 0000966  74.8576 285.2523 15.08849997 79181,6917.85,95.437,540.383,539.047,0.0
52112.0,STARLINK-3734,PAYLOAD,2023-08-14 23:52:02,15.08839547,9.11e-05,53.2167,328.5955,70.6437,289.4654,3.1963e-05,2.21e-06,0.0,0 STARLINK-3734,1 52112U 22029AA  23226.99447237  .00000221  00000-0  31963-4 0  9997,2 52112  53.2167 328.5955 0000911  70.6437 289.4654 15.08839547 79220,6917.882,95.438,540.377,539.117,0.0
52112.0,STARLINK-3734,PAYLOAD,2023-08-15 15:45:53,15.08852185,9.07e-05,53.2175,325.6234,87.0148,273.0948,0.00019859,2.875e-05,0.0,0 STARLINK-3734,1 52112U 22029AA  23227.65686673  .00002875  00000-0  19859-3 0  9996,2 52112  53.2175 325.6234 0000907  87.0148 273.0948 15.08852185 79322,6917.843,95.437,540.336,539.081,0.0
52112.0,STARLINK-3734,PAYLOAD,2023-08-15 23:42:49,15.08841482,0.0001113,53.2172,324.1371,85.263,274.8489,4.9395e-05,4.98e-06,0.0,0 STARLINK-3734,1 52112U 22029AA  23227.98807141  .00000498  00000-0  49395-4 0  9995,2 52112  53.2172 324.1371 0001113  85.2630 274.8489 15.08841482 79373,6917.876,95.437,540.511,538.971,0.0
52112.0,STARLINK-3734,PAYLOAD,2023-08-17 10:41:18,15.08842792,0.0001277,53.2188,317.5992,80.0355,280.0781,9.6145e-05,1.243e-05,0.0,0 STARLINK-3734,1 52112U 22029AA  23229.44535350  .00001243  00000-0  96145-4 0  9992,2 52112  53.2188 317.5992 0001277  80.0355 280.0781 15.08842792 79596,6917.872,95.437,540.62,538.853,0.0
52112.0,STARLINK-3734,PAYLOAD,2023-08-17 15:27:28,15.08823579,0.0001635,53.2191,316.7069,88.3517,271.7662,0.00093096,0.00014553,0.0,0 STARLINK-3734,1 52112U 22029AA  23229.64408523  .00014553  00000-0  93096-3 0  9994,2 52112  53.2191 316.7069 0001635  88.3517 271.7662 15.08823579 79626,6917.931,95.439,540.927,538.665,0.0
52112.0,STARLINK-3734,PAYLOAD,2023-08-17 23:24:23,15.08838628,0.0001528,53.2158,315.218,84.2447,275.8719,9.1592e-05,1.17e-05,0.0,0 STARLINK-3734,1 52112U 22029AA  23229.97527601  .00001170  00000-0  91592-4 0  9990,2 52112  53.2158 315.2180 0001528  84.2447 275.8719 15.08838628 79679,6917.885,95.438,540.807,538.693,0.0
52112.0,STARLINK-3734,PAYLOAD,2023-08-19 10:22:52,15.08844318,0.0001161,53.2176,308.6781,88.8656,271.2469,0.00015674,2.208e-05,0.0,0 STARLINK-3734,1 52112U 22029AA  23231.43255417  .00002208  00000-0  15674-3 0  9996,2 52112  53.2176 308.6781 0001161  88.8656 271.2469 15.08844318 79896,6917.867,95.437,540.535,538.929,0.0
52112.0,STARLINK-3734,PAYLOAD,2023-08-20 03:52:07,15.08839061,0.0001333,53.2186,305.41,82.4253,277.6891,9.3229e-05,1.196e-05,0.0,0 STARLINK-3734,1 52112U 22029AA  23232.16119730  .00001196  00000-0  93229-4 0  9992,2 52112  53.2186 305.4100 0001333  82.4253 277.6891 15.08839061 80004,6917.883,95.438,540.67,538.826,0.0
52112.0,STARLINK-3734,PAYLOAD,2023-08-21 11:39:50,15.08841252,0.0001217,53.2188,299.4588,104.1014,256.0113,4.1143e-05,3.67e-06,0.0,0 STARLINK-3734,1 52112U 22029AA  23233.48599959  .00000367  00000-0  41143-4 0  9990,2 52112  53.2188 299.4588 0001217 104.1014 256.0113 15.08841252 80201,6917.877,95.437,540.583,538.9,0.0
52112.0,STARLINK-3734,PAYLOAD,2023-08-22 09:55:14,15.08835063,0.000131,53.2186,295.2955,107.5756,252.5379,9.644e-05,1.247e-05,0.0,0 STARLINK-3734,1 52112U 22029AA  23234.41336538  .00001247  00000-0  96440-4 0  9994,2 52112  53.2186 295.2955 0001310 107.5756 252.5379 15.08835063 80348,6917.895,95.438,540.667,538.854,0.0
52112.0,STARLINK-3734,PAYLOAD,2023-08-23 11:21:24,15.0884751,0.0001119,53.2174,290.5372,92.4652,267.6469,0.000144,2.005e-05,0.0,0 STARLINK-3734,1 52112U 22029AA  23235.47319730  .00002005  00000-0  14400-3 0  9994,2 52112  53.2174 290.5372 0001119  92.4652 267.6469 15.08847510 80505,6917.857,95.437,540.497,538.948,0.0
52112.0,STARLINK-3734,PAYLOAD,2023-08-24 12:47:35,15.08833267,0.0001102,53.2167,285.779,84.3865,275.7253,3.0425e-05,1.96e-06,0.0,0 STARLINK-3734,1 52112U 22029AA  23236.53305524  .00000196  00000-0  30425-4 0  9993,2 52112  53.2167 285.7790 0001102  84.3865 275.7253 15.08833267 80667,6917.901,95.438,540.528,539.004,0.0
52112.0,STARLINK-3734,PAYLOAD,2023-08-25 03:06:03,15.08842446,0.0001535,53.2167,283.1019,103.9767,256.1395,4.8599e-05,4.86e-06,0.0,0 STARLINK-3734,1 52112U 22029AA  23237.12921031  .00000486  00000-0  48599-4 0  9999,2 52112  53.2167 283.1019 0001535 103.9767 256.1395 15.08842446 80751,6917.873,95.437,540.8,538.676,0.0
52112.0,STARLINK-3734,PAYLOAD,2023-08-25 09:27:36,15.08844933,0.0001152,53.2159,281.9133,82.1148,277.9975,0.00016044,2.267e-05,0.0,0 STARLINK-3734,1 52112U 22029AA  23237.39416927  .00002267  00000-0  16044-3 0  9999,2 52112  53.2159 281.9133 0001152  82.1148 277.9975 15.08844933 80793,6917.865,95.437,540.527,538.933,0.0
52112.0,STARLINK-3734,PAYLOAD,2023-08-26 09:18:23,15.08850443,0.0001208,53.2158,277.4532,70.976,289.1363,0.00034582,5.222e-05,0.0,0 STARLINK-3734,1 52112U 22029AA  23238.38776817  .00005222  00000-0  34582-3 0  9997,2 52112  53.2158 277.4532 0001208  70.9760 289.1363 15.08850443 80948,6917.848,95.437,540.549,538.878,0.0
52112.0,STARLINK-3734,PAYLOAD,2023-08-27 02:47:37,15.08848111,0.0001438,53.2174,274.1831,88.9245,271.1912,9.4739e-05,1.22e-05,0.0,0 STARLINK-3734,1 52112U 22029AA  23239.11640554  .00001220  00000-0  94739-4 0  9992,2 52112  53.2174 274.1831 0001438  88.9245 271.1912 15.08848111 81057,6917.856,95.437,540.715,538.726,0.0
52112.0,STARLINK-3734,PAYLOAD,2023-08-27 09:09:10,15.0884603,0.0001337,53.2168,272.9934,85.2878,274.8267,5.9399e-05,6.58e-06,0.0,0 STARLINK-3734,1 52112U 22029AA  23239.38136586  .00000658  00000-0  59399-4 0  9993,2 52112  53.2168 272.9934 0001337  85.2878 274.8267 15.08846030 81095,6917.862,95.437,540.652,538.802,0.0
52112.0,STARLINK-3734,PAYLOAD,2023-08-28 02:38:24,15.08842961,0.0001382,53.2171,269.7236,87.2281,272.8869,1.6231e-05,-3e-07,0.0,0 STARLINK-3734,1 52112U 22029AA  23240.11000502 -.00000030  00000-0  16231-4 0  9997,2 52112  53.2171 269.7236 0001382  87.2281 272.8869 15.08842961 81206,6917.871,95.437,540.692,538.78,0.0
52112.0,STARLINK-3734,PAYLOAD,2023-08-28 21:43:02,15.08837217,0.0001253,53.2168,266.1535,86.2934,273.8202,4.7343e-05,4.66e-06,0.0,0 STARLINK-3734,1 52112U 22029AA  23240.90488768  .00000466  00000-0  47343-4 0  9998,2 52112  53.2168 266.1535 0001253  86.2934 273.8202 15.08837217 81329,6917.889,95.438,540.621,538.887,0.0
52112.0,STARLINK-3734,PAYLOAD,2023-08-29 08:50:44,15.08839013,0.0001253,53.2168,264.0717,85.8882,274.2253,5.1264e-05,5.28e-06,0.0,0 STARLINK-3734,1 52112U 22029AA  23241.36856683  .00000528  00000-0  51264-4 0  9990,2 52112  53.2168 264.0717 0001253  85.8882 274.2253 15.08839013 81399,6917.883,95.438,540.615,538.882,0.0
52112.0,STARLINK-3734,PAYLOAD,2023-08-30 18:13:50,15.08839104,0.0001263,53.2169,257.8273,89.3679,270.7458,6.8051e-05,7.95e-06,0.0,0 STARLINK-3734,1 52112U 22029AA  23242.75960874  .00000795  00000-0  68051-4 0  9990,2 52112  53.2169 257.8273 0001263  89.3679 270.7458 15.08839104 81604,6917.883,95.438,540.622,538.874,0.0
52112.0,STARLINK-3734,PAYLOAD,2023-08-31 00:35:22,15.0884036,0.0001256,53.2167,256.6375,91.1301,268.9835,7.0133e-05,8.28e-06,0.0,0 STARLINK-3734,1 52112U 22029AA  23243.02456799  .00000828  00000-0  70133-4 0  9998,2 52112  53.2167 256.6375 0001256  91.1301 268.9835 15.08840360 81645,6917.879,95.438,540.613,538.875,0.0
52112.0,STARLINK-3734,PAYLOAD,2023-09-01 06:47:42,15.08837608,0.0001306,53.2168,250.9861,90.334,269.7801,4.2097e-05,3.82e-06,0.0,0 STARLINK-3734,1 52112U 22029AA  23244.28313319  .00000382  00000-0  42097-4 0  9990,2 52112  53.2168 250.9861 0001306  90.3340 269.7801 15.08837608 81837,6917.888,95.438,540.656,538.849,0.0
